start=new Date('2023-01-01T00:00:00.000Z').valueOf();
sats=[{"SEMIMAJOR_AXIS":"6925.269","EPOCH":"2022-12-31T16:01:37.125984","MEAN_ANOMALY":"314.7176","TIME_SYSTEM":"UTC","OBJECT_TYPE":"PAYLOAD","CENTER_NAME":"EARTH","TLE_LINE1":"1 46575U 20070AV  22365.66779081  .00004290  00000-0  30650-3 0  9990","PERIAPSIS":"545.796","LAUNCH_DATE":"2020-10-06","EPHEMERIS_TYPE":"0","CLASSIFICATION_TYPE":"U","FILE":"3728081","MEAN_ELEMENT_THEORY":"SGP4","INCLINATION":"53.0536","GP_ID":"221887830","MEAN_MOTION":"15.06426051","OBJECT_ID":"2020-070AV","ELEMENT_SET_NO":"999","RA_OF_ASC_NODE":"322.1271","BSTAR":"0.00030650000000","RCS_SIZE":"LARGE","PERIOD":"95.590","MEAN_MOTION_DDOT":"0.0000000000000","ARG_OF_PERICENTER":"45.3970","COUNTRY_CODE":"US","MEAN_MOTION_DOT":"0.00004290","APOAPSIS":"548.471","TLE_LINE2":"2 46575  53.0536 322.1271 0001931  45.3970 314.7176 15.06426051124614","SITE":"AFETR","DECAY_DATE":null,"REV_AT_EPOCH":"12461","NORAD_CAT_ID":"46575","OBJECT_NAME":"STARLINK-1675","REF_FRAME":"TEME","ECCENTRICITY":"0.00019310"},{"TLE_LINE1":"1 46576U 20070AW  22365.67103166  .00009044  00000-0  62487-3 0  9992","PERIAPSIS":"545.801","LAUNCH_DATE":"2020-10-06","CENTER_NAME":"EARTH","OBJECT_TYPE":"PAYLOAD","TIME_SYSTEM":"UTC","MEAN_ANOMALY":"301.7921","SEMIMAJOR_AXIS":"6925.273","EPOCH":"2022-12-31T16:06:17.135424","GP_ID":"221886590","INCLINATION":"53.0543","FILE":"3728081","MEAN_ELEMENT_THEORY":"SGP4","CLASSIFICATION_TYPE":"U","EPHEMERIS_TYPE":"0","MEAN_MOTION_DDOT":"0.0000000000000","ARG_OF_PERICENTER":"58.3256","COUNTRY_CODE":"US","PERIOD":"95.591","RCS_SIZE":"LARGE","BSTAR":"0.00062487000000","ELEMENT_SET_NO":"999","RA_OF_ASC_NODE":"347.1052","MEAN_MOTION":"15.06424500","OBJECT_ID":"2020-070AW","ECCENTRICITY":"0.00019320","REF_FRAME":"TEME","NORAD_CAT_ID":"46576","OBJECT_NAME":"STARLINK-1677","DECAY_DATE":null,"REV_AT_EPOCH":"12427","SITE":"AFETR","TLE_LINE2":"2 46576  53.0543 347.1052 0001932  58.3256 301.7921 15.06424500124272","APOAPSIS":"548.476","MEAN_MOTION_DOT":"0.00009044"},{"RCS_SIZE":"LARGE","PERIOD":"95.591","MEAN_MOTION_DDOT":"0.0000000000000","COUNTRY_CODE":"US","ARG_OF_PERICENTER":"61.5589","OBJECT_ID":"2020-070AX","MEAN_MOTION":"15.06415063","ELEMENT_SET_NO":"999","RA_OF_ASC_NODE":"346.6591","BSTAR":"0.00016061000000","DECAY_DATE":null,"REV_AT_EPOCH":"12428","NORAD_CAT_ID":"46577","OBJECT_NAME":"STARLINK-1682","REF_FRAME":"TEME","ECCENTRICITY":"0.00019360","MEAN_MOTION_DOT":"0.00002112","TLE_LINE2":"2 46577  53.0533 346.6591 0001936  61.5589 298.5595 15.06415063124288","SITE":"AFETR","APOAPSIS":"548.508","OBJECT_TYPE":"PAYLOAD","CENTER_NAME":"EARTH","TLE_LINE1":"1 46577U 20070AX  22365.76685621  .00002112  00000-0  16061-3 0  9990","PERIAPSIS":"545.827","LAUNCH_DATE":"2020-10-06","SEMIMAJOR_AXIS":"6925.302","EPOCH":"2022-12-31T18:24:16.376544","MEAN_ANOMALY":"298.5595","TIME_SYSTEM":"UTC","MEAN_ELEMENT_THEORY":"SGP4","FILE":"3728081","INCLINATION":"53.0533","GP_ID":"221886840","EPHEMERIS_TYPE":"0","CLASSIFICATION_TYPE":"U"},{"TIME_SYSTEM":"UTC","SEMIMAJOR_AXIS":"6925.339","EPOCH":"2022-12-31T21:08:09.743712","MEAN_ANOMALY":"311.2297","CENTER_NAME":"EARTH","LAUNCH_DATE":"2020-10-06","PERIAPSIS":"545.564","TLE_LINE1":"1 46578U 20070AY  22365.88066833 -.00000234  00000-0  31872-5 0  9995","OBJECT_TYPE":"PAYLOAD","CLASSIFICATION_TYPE":"U","EPHEMERIS_TYPE":"0","GP_ID":"221867093","MEAN_ELEMENT_THEORY":"SGP4","FILE":"3728042","INCLINATION":"53.0535","BSTAR":"0.00000318720000","OBJECT_ID":"2020-070AY","MEAN_MOTION":"15.06403255","RA_OF_ASC_NODE":"331.2168","ELEMENT_SET_NO":"999","COUNTRY_CODE":"US","ARG_OF_PERICENTER":"48.8896","MEAN_MOTION_DDOT":"0.0000000000000","RCS_SIZE":"LARGE","PERIOD":"95.592","APOAPSIS":"548.843","TLE_LINE2":"2 46578  53.0535 331.2168 0002367  48.8896 311.2297 15.06403255124214","SITE":"AFETR","MEAN_MOTION_DOT":"-0.00000234","REF_FRAME":"TEME","ECCENTRICITY":"0.00023670","REV_AT_EPOCH":"12421","DECAY_DATE":null,"OBJECT_NAME":"STARLINK-1683","NORAD_CAT_ID":"46578"},{"GP_ID":"221832612","FILE":"3727988","MEAN_ELEMENT_THEORY":"SGP4","INCLINATION":"53.0564","CLASSIFICATION_TYPE":"U","EPHEMERIS_TYPE":"0","CENTER_NAME":"EARTH","LAUNCH_DATE":"2020-10-06","PERIAPSIS":"545.906","TLE_LINE1":"1 46579U 20070AZ  22365.28770583  .00027394  00000-0  18555-2 0  9999","OBJECT_TYPE":"PAYLOAD","TIME_SYSTEM":"UTC","SEMIMAJOR_AXIS":"6925.637","EPOCH":"2022-12-31T06:54:17.783712","MEAN_ANOMALY":"301.2866","REF_FRAME":"TEME","ECCENTRICITY":"0.00023050","REV_AT_EPOCH":"12421","DECAY_DATE":null,"OBJECT_NAME":"STARLINK-1705","NORAD_CAT_ID":"46579","TLE_LINE2":"2 46579  53.0564 348.8357 0002305  58.8348 301.2866 15.06305836124213","APOAPSIS":"549.099","SITE":"AFETR","MEAN_MOTION_DOT":"0.00027394","ARG_OF_PERICENTER":"58.8348","COUNTRY_CODE":"US","MEAN_MOTION_DDOT":"0.0000000000000","RCS_SIZE":"LARGE","PERIOD":"95.598","BSTAR":"0.00185550000000","OBJECT_ID":"2020-070AZ","MEAN_MOTION":"15.06305836","RA_OF_ASC_NODE":"348.8357","ELEMENT_SET_NO":"999"},{"OBJECT_TYPE":"PAYLOAD","CENTER_NAME":"EARTH","LAUNCH_DATE":"2020-10-06","PERIAPSIS":"545.347","TLE_LINE1":"1 46580U 20070BA  22365.66365232  .00004406  00000-0  31440-3 0  9992","SEMIMAJOR_AXIS":"6925.313","EPOCH":"2022-12-31T15:55:39.560448","MEAN_ANOMALY":"322.4611","TIME_SYSTEM":"UTC","FILE":"3728081","MEAN_ELEMENT_THEORY":"SGP4","INCLINATION":"53.0544","GP_ID":"221887091","EPHEMERIS_TYPE":"0","CLASSIFICATION_TYPE":"U","RCS_SIZE":"LARGE","PERIOD":"95.591","COUNTRY_CODE":"US","ARG_OF_PERICENTER":"37.6563","MEAN_MOTION_DDOT":"0.0000000000000","MEAN_MOTION":"15.06411670","OBJECT_ID":"2020-070BA","RA_OF_ASC_NODE":"347.1464","ELEMENT_SET_NO":"999","BSTAR":"0.00031440000000","REV_AT_EPOCH":"12427","DECAY_DATE":null,"OBJECT_NAME":"STARLINK-1708","NORAD_CAT_ID":"46580","REF_FRAME":"TEME","ECCENTRICITY":"0.00026430","MEAN_MOTION_DOT":"0.00004406","TLE_LINE2":"2 46580  53.0544 347.1464 0002643  37.6563 322.4611 15.06411670124276","APOAPSIS":"549.008","SITE":"AFETR"},{"CENTER_NAME":"EARTH","LAUNCH_DATE":"2020-10-06","TLE_LINE1":"1 46581U 20070BB  22365.23101151  .00006126  00000-0  42963-3 0  9997","PERIAPSIS":"546.050","OBJECT_TYPE":"PAYLOAD","TIME_SYSTEM":"UTC","SEMIMAJOR_AXIS":"6925.305","EPOCH":"2022-12-31T05:32:39.394464","MEAN_ANOMALY":"296.8471","GP_ID":"221833119","FILE":"3727988","MEAN_ELEMENT_THEORY":"SGP4","INCLINATION":"53.0539","CLASSIFICATION_TYPE":"U","EPHEMERIS_TYPE":"0","COUNTRY_CODE":"US","ARG_OF_PERICENTER":"63.2683","MEAN_MOTION_DDOT":"0.0000000000000","RCS_SIZE":"LARGE","PERIOD":"95.591","BSTAR":"0.00042963000000","MEAN_MOTION":"15.06414372","OBJECT_ID":"2020-070BB","RA_OF_ASC_NODE":"344.0797","ELEMENT_SET_NO":"999","REF_FRAME":"TEME","ECCENTRICITY":"0.00016170","REV_AT_EPOCH":"12427","DECAY_DATE":null,"OBJECT_NAME":"STARLINK-1712","NORAD_CAT_ID":"46581","SITE":"AFETR","TLE_LINE2":"2 46581  53.0539 344.0797 0001617  63.2683 296.8471 15.06414372124274","APOAPSIS":"548.289","MEAN_MOTION_DOT":"0.00006126"},{"GP_ID":"221888092","INCLINATION":"53.0533","MEAN_ELEMENT_THEORY":"SGP4","FILE":"3728081","CLASSIFICATION_TYPE":"U","EPHEMERIS_TYPE":"0","LAUNCH_DATE":"2020-10-06","TLE_LINE1":"1 46582U 20070BC  22365.68069929  .00006305  00000-0  44163-3 0  9996","PERIAPSIS":"545.796","CENTER_NAME":"EARTH","OBJECT_TYPE":"PAYLOAD","TIME_SYSTEM":"UTC","MEAN_ANOMALY":"337.3178","SEMIMAJOR_AXIS":"6925.312","EPOCH":"2022-12-31T16:20:12.418656","ECCENTRICITY":"0.00019930","REF_FRAME":"TEME","OBJECT_NAME":"STARLINK-1728","NORAD_CAT_ID":"46582","REV_AT_EPOCH":"12434","DECAY_DATE":null,"TLE_LINE2":"2 46582  53.0533 342.0759 0001993  22.7899 337.3178 15.06412059124344","SITE":"AFETR","APOAPSIS":"548.557","MEAN_MOTION_DOT":"0.00006305","COUNTRY_CODE":"US","ARG_OF_PERICENTER":"22.7899","MEAN_MOTION_DDOT":"0.0000000000000","PERIOD":"95.591","RCS_SIZE":"LARGE","BSTAR":"0.00044163000000","RA_OF_ASC_NODE":"342.0759","ELEMENT_SET_NO":"999","OBJECT_ID":"2020-070BC","MEAN_MOTION":"15.06412059"},{"CLASSIFICATION_TYPE":"U","EPHEMERIS_TYPE":"0","GP_ID":"221832114","INCLINATION":"53.0543","FILE":"3727988","MEAN_ELEMENT_THEORY":"SGP4","TIME_SYSTEM":"UTC","MEAN_ANOMALY":"325.9703","SEMIMAJOR_AXIS":"6925.260","EPOCH":"2022-12-31T09:34:10.252128","PERIAPSIS":"545.162","TLE_LINE1":"1 46583U 20070BD  22365.39872977  .00009076  00000-0  62690-3 0  9993","LAUNCH_DATE":"2020-10-06","CENTER_NAME":"EARTH","OBJECT_TYPE":"PAYLOAD","SITE":"AFETR","TLE_LINE2":"2 46583  53.0543   3.3382 0002834  34.1468 325.9703 15.06428869124016","APOAPSIS":"549.088","MEAN_MOTION_DOT":"0.00009076","ECCENTRICITY":"0.00028340","REF_FRAME":"TEME","NORAD_CAT_ID":"46583","OBJECT_NAME":"STARLINK-1729","DECAY_DATE":null,"REV_AT_EPOCH":"12401","BSTAR":"0.00062690000000","ELEMENT_SET_NO":"999","RA_OF_ASC_NODE":"3.3382","OBJECT_ID":"2020-070BD","MEAN_MOTION":"15.06428869","MEAN_MOTION_DDOT":"0.0000000000000","ARG_OF_PERICENTER":"34.1468","COUNTRY_CODE":"US","PERIOD":"95.590","RCS_SIZE":"LARGE"},{"DECAY_DATE":null,"REV_AT_EPOCH":"12430","NORAD_CAT_ID":"46584","OBJECT_NAME":"STARLINK-1732","REF_FRAME":"TEME","ECCENTRICITY":"0.00025590","MEAN_MOTION_DOT":"0.00003732","TLE_LINE2":"2 46584  53.0552 343.2454 0002559  38.8457 321.2716 15.06409681124302","APOAPSIS":"548.956","SITE":"AFETR","RCS_SIZE":"LARGE","PERIOD":"95.592","MEAN_MOTION_DDOT":"0.0000000000000","ARG_OF_PERICENTER":"38.8457","COUNTRY_CODE":"US","OBJECT_ID":"2020-070BE","MEAN_MOTION":"15.06409681","ELEMENT_SET_NO":"999","RA_OF_ASC_NODE":"343.2454","BSTAR":"0.00026927000000","MEAN_ELEMENT_THEORY":"SGP4","FILE":"3727988","INCLINATION":"53.0552","GP_ID":"221832870","EPHEMERIS_TYPE":"0","CLASSIFICATION_TYPE":"U","OBJECT_TYPE":"PAYLOAD","CENTER_NAME":"EARTH","PERIAPSIS":"545.412","TLE_LINE1":"1 46584U 20070BE  22365.41899151  .00003732  00000-0  26927-3 0  9996","LAUNCH_DATE":"2020-10-06","SEMIMAJOR_AXIS":"6925.319","EPOCH":"2022-12-31T10:03:20.866464","MEAN_ANOMALY":"321.2716","TIME_SYSTEM":"UTC"}];
